[{"OBJECT_NAME":"THURAYA-3","OBJECT_ID":"2008-001A","EPOCH":"2026-03-14T22:40:09.120000","MEAN_MOTION":1.0026878,"ECCENTRICITY":0.00022815,"INCLINATION":5.8293,"RA_OF_ASC_NODE":35.6123,"ARG_OF_PERICENTER":326.29,"MEAN_ANOMALY":249.0754,"EPHEMERIS_TYPE":0,"CLASSIFICATION_TYPE":"U","NORAD_CAT_ID":32404,"ELEMENT_SET_NO":999,"REV_AT_EPOCH":6654,"BSTAR":0,"MEAN_MOTION_DOT":-2.97e-6,"MEAN_MOTION_DDOT":0},{"OBJECT_NAME":"THOR 5","OBJECT_ID":"2008-006A","EPOCH":"2026-03-15T06:45:15.100128","MEAN_MOTION":1.00272801,"ECCENTRICITY":0.00027853,"INCLINATION":0.0459,"RA_OF_ASC_NODE":252.4813,"ARG_OF_PERICENTER":119.7965,"MEAN_ANOMALY":261.1598,"EPHEMERIS_TYPE":0,"CLASSIFICATION_TYPE":"U","NORAD_CAT_ID":32487,"ELEMENT_SET_NO":999,"REV_AT_EPOCH":6637,"BSTAR":0,"MEAN_MOTION_DOT":-1.0e-7,"MEAN_MOTION_DDOT":0},{"OBJECT_NAME":"AMC-14","OBJECT_ID":"2008-011A","EPOCH":"2026-03-12T23:28:38.773056","MEAN_MOTION":1.0032588,"ECCENTRICITY":0.00480089,"INCLINATION":23.8935,"RA_OF_ASC_NODE":21.6783,"ARG_OF_PERICENTER":356.265,"MEAN_ANOMALY":186.5466,"EPHEMERIS_TYPE":0,"CLASSIFICATION_TYPE":"U","NORAD_CAT_ID":32708,"ELEMENT_SET_NO":999,"REV_AT_EPOCH":6720,"BSTAR":0,"MEAN_MOTION_DOT":1.06e-6,"MEAN_MOTION_DDOT":0},{"OBJECT_NAME":"DIRECTV 11","OBJECT_ID":"2008-013A","EPOCH":"2026-03-15T04:07:01.717824","MEAN_MOTION":1.00272033,"ECCENTRICITY":2.478e-5,"INCLINATION":0.0056,"RA_OF_ASC_NODE":63.809,"ARG_OF_PERICENTER":327.86,"MEAN_ANOMALY":103.6676,"EPHEMERIS_TYPE":0,"CLASSIFICATION_TYPE":"U","NORAD_CAT_ID":32729,"ELEMENT_SET_NO":999,"REV_AT_EPOCH":4465,"BSTAR":0,"MEAN_MOTION_DOT":-1.27e-6,"MEAN_MOTION_DDOT":0},{"OBJECT_NAME":"ICO G1","OBJECT_ID":"2008-016A","EPOCH":"2026-03-15T06:57:54.167328","MEAN_MOTION":1.00272888,"ECCENTRICITY":0.00029304,"INCLINATION":5.5146,"RA_OF_ASC_NODE":36.3525,"ARG_OF_PERICENTER":295.6993,"MEAN_ANOMALY":212.465,"EPHEMERIS_TYPE":0,"CLASSIFICATION_TYPE":"U","NORAD_CAT_ID":32763,"ELEMENT_SET_NO":999,"REV_AT_EPOCH":6560,"BSTAR":0,"MEAN_MOTION_DOT":-1.69e-6,"MEAN_MOTION_DDOT":0},{"OBJECT_NAME":"VINASAT-1","OBJECT_ID":"2008-018A","EPOCH":"2026-03-15T05:40:28.810848","MEAN_MOTION":1.00271673,"ECCENTRICITY":0.00024798,"INCLINATION":0.0363,"RA_OF_ASC_NODE":279.3391,"ARG_OF_PERICENTER":117.4851,"MEAN_ANOMALY":353.0736,"EPHEMERIS_TYPE":0,"CLASSIFICATION_TYPE":"U","NORAD_CAT_ID":32767,"ELEMENT_SET_NO":999,"REV_AT_EPOCH":6564,"BSTAR":0,"MEAN_MOTION_DOT":-3.29e-6,"MEAN_MOTION_DDOT":0},{"OBJECT_NAME":"STAR ONE C2","OBJECT_ID":"2008-018B","EPOCH":"2026-03-15T06:27:01.846368","MEAN_MOTION":1.0027446,"ECCENTRICITY":0.00026914,"INCLINATION":0.999,"RA_OF_ASC_NODE":83.3275,"ARG_OF_PERICENTER":271.8004,"MEAN_ANOMALY":209.486,"EPHEMERIS_TYPE":0,"CLASSIFICATION_TYPE":"U","NORAD_CAT_ID":32768,"ELEMENT_SET_NO":999,"REV_AT_EPOCH":6571,"BSTAR":0,"MEAN_MOTION_DOT":-2.77e-6,"MEAN_MOTION_DDOT":0},{"OBJECT_NAME":"AMOS-3","OBJECT_ID":"2008-022A","EPOCH":"2026-03-15T05:01:40.032768","MEAN_MOTION":1.00271223,"ECCENTRICITY":0.00013679,"INCLINATION":0.2111,"RA_OF_ASC_NODE":88.3424,"ARG_OF_PERICENTER":187.153,"MEAN_ANOMALY":328.6001,"EPHEMERIS_TYPE":0,"CLASSIFICATION_TYPE":"U","NORAD_CAT_ID":32794,"ELEMENT_SET_NO":999,"REV_AT_EPOCH":8139,"BSTAR":0,"MEAN_MOTION_DOT":-3.6e-7,"MEAN_MOTION_DDOT":0},{"OBJECT_NAME":"GALAXY 18 (G-18)","OBJECT_ID":"2008-024A","EPOCH":"2026-03-14T23:19:42.826944","MEAN_MOTION":1.00272991,"ECCENTRICITY":0.00030556,"INCLINATION":0.0195,"RA_OF_ASC_NODE":108.6449,"ARG_OF_PERICENTER":259.1238,"MEAN_ANOMALY":31.7351,"EPHEMERIS_TYPE":0,"CLASSIFICATION_TYPE":"U","NORAD_CAT_ID":32951,"ELEMENT_SET_NO":999,"REV_AT_EPOCH":4490,"BSTAR":0,"MEAN_MOTION_DOT":2.4e-7,"MEAN_MOTION_DDOT":0},{"OBJECT_NAME":"ZHONGXING-9","OBJECT_ID":"2008-028A","EPOCH":"2026-03-13T19:15:25.189632","MEAN_MOTION":1.00270101,"ECCENTRICITY":0.00083743,"INCLINATION":0.5233,"RA_OF_ASC_NODE":86.8156,"ARG_OF_PERICENTER":249.5125,"MEAN_ANOMALY":216.3123,"EPHEMERIS_TYPE":0,"CLASSIFICATION_TYPE":"U","NORAD_CAT_ID":33051,"ELEMENT_SET_NO":999,"REV_AT_EPOCH":6508,"BSTAR":0,"MEAN_MOTION_DOT":-2.49e-6,"MEAN_MOTION_DDOT":0},{"OBJECT_NAME":"SKYNET 5C","OBJECT_ID":"2008-030A","EPOCH":"2026-03-15T06:40:23.065536","MEAN_MOTION":1.00271939,"ECCENTRICITY":0.00051019,"INCLINATION":3.5471,"RA_OF_ASC_NODE":78.1511,"ARG_OF_PERICENTER":291.819,"MEAN_ANOMALY":245.1964,"EPHEMERIS_TYPE":0,"CLASSIFICATION_TYPE":"U","NORAD_CAT_ID":33055,"ELEMENT_SET_NO":999,"REV_AT_EPOCH":6501,"BSTAR":0,"MEAN_MOTION_DOT":-1.39e-6,"MEAN_MOTION_DDOT":0},{"OBJECT_NAME":"TURKSAT 3A","OBJECT_ID":"2008-030B","EPOCH":"2026-03-15T05:35:38.700384","MEAN_MOTION":1.00273258,"ECCENTRICITY":0.00047478,"INCLINATION":0.045,"RA_OF_ASC_NODE":83.747,"ARG_OF_PERICENTER":297.9352,"MEAN_ANOMALY":277.0413,"EPHEMERIS_TYPE":0,"CLASSIFICATION_TYPE":"U","NORAD_CAT_ID":33056,"ELEMENT_SET_NO":999,"REV_AT_EPOCH":5141,"BSTAR":0,"MEAN_MOTION_DOT":1.45e-6,"MEAN_MOTION_DDOT":0},{"OBJECT_NAME":"INTELSAT 25 (IS-25)","OBJECT_ID":"2008-034A","EPOCH":"2026-03-15T01:28:30.474048","MEAN_MOTION":1.00270237,"ECCENTRICITY":0.00032395,"INCLINATION":2.4631,"RA_OF_ASC_NODE":81.4725,"ARG_OF_PERICENTER":251.3174,"MEAN_ANOMALY":190.4936,"EPHEMERIS_TYPE":0,"CLASSIFICATION_TYPE":"U","NORAD_CAT_ID":33153,"ELEMENT_SET_NO":999,"REV_AT_EPOCH":6475,"BSTAR":0,"MEAN_MOTION_DOT":-2.24e-6,"MEAN_MOTION_DDOT":0},{"OBJECT_NAME":"ECHOSTAR 11","OBJECT_ID":"2008-035A","EPOCH":"2026-03-15T06:14:10.578624","MEAN_MOTION":1.0027209,"ECCENTRICITY":0.00025388,"INCLINATION":0.7603,"RA_OF_ASC_NODE":85.3116,"ARG_OF_PERICENTER":257.4268,"MEAN_ANOMALY":173.6655,"EPHEMERIS_TYPE":0,"CLASSIFICATION_TYPE":"U","NORAD_CAT_ID":33207,"ELEMENT_SET_NO":999,"REV_AT_EPOCH":5027,"BSTAR":0,"MEAN_MOTION_DOT":-5.7e-7,"MEAN_MOTION_DDOT":0},{"OBJECT_NAME":"SUPERBIRD-C2","OBJECT_ID":"2008-038A","EPOCH":"2026-03-15T00:31:20.812224","MEAN_MOTION":1.00274401,"ECCENTRICITY":0.00018241,"INCLINATION":2.1164,"RA_OF_ASC_NODE":82.4612,"ARG_OF_PERICENTER":358.52,"MEAN_ANOMALY":235.4829,"EPHEMERIS_TYPE":0,"CLASSIFICATION_TYPE":"U","NORAD_CAT_ID":33274,"ELEMENT_SET_NO":999,"REV_AT_EPOCH":10478,"BSTAR":0,"MEAN_MOTION_DOT":-3.06e-6,"MEAN_MOTION_DDOT":0},{"OBJECT_NAME":"INMARSAT 4-F3","OBJECT_ID":"2008-039A","EPOCH":"2026-03-14T23:26:49.643808","MEAN_MOTION":1.00271334,"ECCENTRICITY":0.00027736,"INCLINATION":4.2124,"RA_OF_ASC_NODE":31.2382,"ARG_OF_PERICENTER":335.255,"MEAN_ANOMALY":59.7942,"EPHEMERIS_TYPE":0,"CLASSIFICATION_TYPE":"U","NORAD_CAT_ID":33278,"ELEMENT_SET_NO":999,"REV_AT_EPOCH":4560,"BSTAR":0,"MEAN_MOTION_DOT":-1.38e-6,"MEAN_MOTION_DDOT":0},{"OBJECT_NAME":"NIMIQ 4","OBJECT_ID":"2008-044A","EPOCH":"2026-03-15T06:22:09.812640","MEAN_MOTION":1.00271114,"ECCENTRICITY":0.00023741,"INCLINATION":0.0234,"RA_OF_ASC_NODE":117.0056,"ARG_OF_PERICENTER":240.858,"MEAN_ANOMALY":188.532,"EPHEMERIS_TYPE":0,"CLASSIFICATION_TYPE":"U","NORAD_CAT_ID":33373,"ELEMENT_SET_NO":999,"REV_AT_EPOCH":6404,"BSTAR":0,"MEAN_MOTION_DOT":-2.21e-6,"MEAN_MOTION_DDOT":0}]
